[
    {
        "Altitude(m)": 607895.8582717464,
        "Argument of Periapsis(deg)": 0.0,
        "Eccentricity": 0.0,
        "Inclination(deg)": 60.0,
        "Latitude(deg)": 40.99845034027001,
        "Longitude(deg)": 105.0886629976096,
        "Mean Anomaly(deg)": 130.9091,
        "RAAN(deg)": 55.00000000000001,
        "Satellite Name": "Test1 250",
        "Satellite Number": 250,
        "Semi-Major Axis(m)": 6980739.136638005,
        "Time(s)": 0
    },
    {
        "Altitude(m)": 607795.1709488579,
        "Argument of Periapsis(deg)": 0.00010418945913296404,
        "Eccentricity": 0.0,
        "Inclination(deg)": 60.0,
        "Latitude(deg)": 40.530774431060884,
        "Longitude(deg)": 105.5852573618963,
        "Mean Anomaly(deg)": 131.5292061454618,
        "RAAN(deg)": 54.999579950860266,
        "Satellite Name": "Test1 250",
        "Satellite Number": 250,
        "Semi-Major Axis(m)": 6980739.136638005,
        "Time(s)": 10
    }
]